{
    "links": {
        "self": "http://www.neowsapp.com/rest/v1/neo/3976541?api_key=iIulBulltgU6a56xZRHN4H3l9WmuAYTsLGpBGhQ2"
    },
    "id": "3976541",
    "neo_reference_id": "3976541",
    "name": "(2020 AX1)",
    "designation": "2020 AX1",
    "nasa_jpl_url": "http://ssd.jpl.nasa.gov/sbdb.cgi?sstr=3976541",
    "absolute_magnitude_h": 24.2,
    "estimated_diameter": {
        "kilometers": {
            "estimated_diameter_min": 0.0384197891,
            "estimated_diameter_max": 0.0859092601
        },
        "meters": {
            "estimated_diameter_min": 38.4197891064,
            "estimated_diameter_max": 85.9092601232
        },
        "miles": {
            "estimated_diameter_min": 0.0238729428,
            "estimated_diameter_max": 0.0533815229
        },
        "feet": {
            "estimated_diameter_min": 126.0491808919,
            "estimated_diameter_max": 281.8545369825
        }
    },
    "is_potentially_hazardous_asteroid": false,
    "close_approach_data": [
        {
            "close_approach_date": "2020-01-12",
            "close_approach_date_full": "2020-Jan-12 20:45",
            "epoch_date_close_approach": 1578861900000,
            "relative_velocity": {
                "kilometers_per_second": "10.8754145391",
                "kilometers_per_hour": "39151.4923408068",
                "miles_per_hour": "24327.2147825419"
            },
            "miss_distance": {
                "astronomical": "0.0601992416",
                "lunar": "23.4175049824",
                "kilometers": "9005678.318975392",
                "miles": "5595869.0235167296"
            },
            "orbiting_body": "Earth"
        }
    ],
    "orbital_data": {
        "orbit_id": "3",
        "orbit_determination_date": "2020-01-19 05:17:58",
        "first_observation_date": "2020-01-04",
        "last_observation_date": "2020-01-18",
        "data_arc_in_days": 14,
        "observations_used": 57,
        "orbit_uncertainty": "8",
        "minimum_orbit_intersection": ".0108577",
        "jupiter_tisserand_invariant": "3.230",
        "epoch_osculation": "2458854.5",
        "eccentricity": ".6042036519449301",
        "semi_major_axis": "2.431087482363437",
        "inclination": ".8923079202191836",
        "ascending_node_longitude": "33.00436975771237",
        "orbital_period": "1384.520235590884",
        "perihelion_distance": ".9622155473218424",
        "perihelion_argument": "112.2210598462641",
        "aphelion_distance": "3.89995941740503",
        "perihelion_time": "2458885.368132137427",
        "mean_anomaly": "351.9737340893894",
        "mean_motion": ".2600178681002518",
        "equinox": "J2000",
        "orbit_class": {
            "orbit_class_type": "APO",
            "orbit_class_description": "Near-Earth asteroid orbits which cross the Earth’s orbit similar to that of 1862 Apollo",
            "orbit_class_range": "a (semi-major axis) > 1.0 AU; q (perihelion) < 1.017 AU"
        }
    },
    "is_sentry_object": false
}